{
  "type": "FeatureCollection",
  "features": [
    {
      "type": "Feature",
      "properties": {
        "norad_id": 38857,
        "name": "GSAT0103 (GALILEO-FM3)",
        "group": "gnss",
        "lat": -40.294099380191504,
        "lon": -38.25333421347273,
        "alt_km": 23220.371980057967,
        "timestamp": "2025-12-20T22:39:10.872303+00:00",
        "meta_object_name": "GSAT0103 (GALILEO-FM3)",
        "meta_object_id": "2012-055A",
        "meta_epoch": "2025-12-18T05:17:11.481792",
        "meta_mean_motion": 1.70473412,
        "meta_eccentricity": 0.00028558,
        "meta_inclination": 55.6954,
        "meta_ra_of_asc_node": 106.5161,
        "meta_arg_of_pericenter": 269.0808,
        "meta_mean_anomaly": 90.8455,
        "meta_ephemeris_type": 0,
        "meta_classification_type": "U",
        "meta_norad_cat_id": 38857,
        "meta_element_set_no": 999,
        "meta_rev_at_epoch": 8192,
        "meta_bstar": 0,
        "meta_mean_motion_dot": -7e-08,
        "meta_mean_motion_ddot": 0,
        "tle_line1": "1 38857U 12055A   25352.22027178 -.00000007  00000+0  00000+0 0  9996",
        "tle_line2": "2 38857  55.6954 106.5161 0002855 269.0808  90.8455  1.70473412 81920"
      },
      "geometry": {
        "type": "Point",
        "coordinates": [
          -38.25333421347273,
          -40.294099380191504
        ]
      }
    },
    {
      "type": "Feature",
      "properties": {
        "norad_id": 38953,
        "name": "BEIDOU-2 G6 (C02)",
        "group": "gnss",
        "lat": 3.898125225262232,
        "lon": 153.5271288993385,
        "alt_km": 35815.32495628393,
        "timestamp": "2025-12-20T22:39:10.872314+00:00",
        "meta_object_name": "BEIDOU-2 G6 (C02)",
        "meta_object_id": "2012-059A",
        "meta_epoch": "2025-12-20T19:47:52.420992",
        "meta_mean_motion": 1.00268677,
        "meta_eccentricity": 0.0008308,
        "meta_inclination": 3.9683,
        "meta_ra_of_asc_node": 75.4299,
        "meta_arg_of_pericenter": 292.0763,
        "meta_mean_anomaly": 103.0562,
        "meta_ephemeris_type": 0,
        "meta_classification_type": "U",
        "meta_norad_cat_id": 38953,
        "meta_element_set_no": 999,
        "meta_rev_at_epoch": 4812,
        "meta_bstar": 0,
        "meta_mean_motion_dot": -1.54e-06,
        "meta_mean_motion_ddot": 0,
        "tle_line1": "1 38953U 12059A   25354.82491228 -.00000154  00000+0  00000+0 0  9999",
        "tle_line2": "2 38953   3.9683  75.4299 0008308 292.0763 103.0562  1.00268677 48122"
      },
      "geometry": {
        "type": "Point",
        "coordinates": [
          153.5271288993385,
          3.898125225262232
        ]
      }
    },
    {
      "type": "Feature",
      "properties": {
        "norad_id": 38977,
        "name": "LUCH 5B (SDCM/PRN 125)",
        "group": "gnss",
        "lat": 0.2958621672638161,
        "lon": 53.22567508707717,
        "alt_km": 35813.01172379255,
        "timestamp": "2025-12-20T22:39:10.872325+00:00",
        "meta_object_name": "LUCH 5B (SDCM/PRN 125)",
        "meta_object_id": "2012-061A",
        "meta_epoch": "2025-12-20T10:31:38.599680",
        "meta_mean_motion": 1.00272375,
        "meta_eccentricity": 0.00065972,
        "meta_inclination": 10.0969,
        "meta_ra_of_asc_node": 51.6321,
        "meta_arg_of_pericenter": 195.4287,
        "meta_mean_anomaly": 343.7948,
        "meta_ephemeris_type": 0,
        "meta_classification_type": "U",
        "meta_norad_cat_id": 38977,
        "meta_element_set_no": 999,
        "meta_rev_at_epoch": 4781,
        "meta_bstar": 0,
        "meta_mean_motion_dot": -1.21e-06,
        "meta_mean_motion_ddot": 0,
        "tle_line1": "1 38977U 12061A   25354.43864120 -.00000121  00000+0  00000+0 0  9994",
        "tle_line2": "2 38977  10.0969  51.6321 0006597 195.4287 343.7948  1.00272375 47817"
      },
      "geometry": {
        "type": "Point",
        "coordinates": [
          53.22567508707717,
          0.2958621672638161
        ]
      }
    },
    {
      "type": "Feature",
      "properties": {
        "norad_id": 39155,
        "name": "COSMOS 2485 (747)",
        "group": "gnss",
        "lat": -65.34187776895132,
        "lon": -9.913927873206047,
        "alt_km": 19087.774664217144,
        "timestamp": "2025-12-20T22:39:10.872335+00:00",
        "meta_object_name": "COSMOS 2485 (747)",
        "meta_object_id": "2013-019A",
        "meta_epoch": "2025-12-20T02:56:15.243360",
        "meta_mean_motion": 2.1310322,
        "meta_eccentricity": 0.00248761,
        "meta_inclination": 65.3174,
        "meta_ra_of_asc_node": 79.6189,
        "meta_arg_of_pericenter": 230.2075,
        "meta_mean_anomaly": 129.6042,
        "meta_ephemeris_type": 0,
        "meta_classification_type": "U",
        "meta_norad_cat_id": 39155,
        "meta_element_set_no": 999,
        "meta_rev_at_epoch": 9846,
        "meta_bstar": 0,
        "meta_mean_motion_dot": -2e-07,
        "meta_mean_motion_ddot": 0,
        "tle_line1": "1 39155U 13019A   25354.12239865 -.00000020  00000+0  00000+0 0  9993",
        "tle_line2": "2 39155  65.3174  79.6189 0024876 230.2075 129.6042  2.13103220 98462"
      },
      "geometry": {
        "type": "Point",
        "coordinates": [
          -9.913927873206047,
          -65.34187776895132
        ]
      }
    },
    {
      "type": "Feature",
      "properties": {
        "norad_id": 39166,
        "name": "GPS BIIF-4  (PRN 27)",
        "group": "gnss",
        "lat": -3.1993014218900946,
        "lon": 98.49510395966576,
        "alt_km": 20440.7313225358,
        "timestamp": "2025-12-20T22:39:10.872345+00:00",
        "meta_object_name": "GPS BIIF-4  (PRN 27)",
        "meta_object_id": "2013-023A",
        "meta_epoch": "2025-12-19T04:43:12.887616",
        "meta_mean_motion": 2.00564719,
        "meta_eccentricity": 0.0138305,
        "meta_inclination": 54.6464,
        "meta_ra_of_asc_node": 276.3057,
        "meta_arg_of_pericenter": 48.6894,
        "meta_mean_anomaly": 312.5202,
        "meta_ephemeris_type": 0,
        "meta_classification_type": "U",
        "meta_norad_cat_id": 39166,
        "meta_element_set_no": 999,
        "meta_rev_at_epoch": 9227,
        "meta_bstar": 0,
        "meta_mean_motion_dot": -2.9e-07,
        "meta_mean_motion_ddot": 0,
        "tle_line1": "1 39166U 13023A   25353.19667694 -.00000029  00000+0  00000+0 0  9990",
        "tle_line2": "2 39166  54.6464 276.3057 0138305  48.6894 312.5202  2.00564719 92274"
      },
      "geometry": {
        "type": "Point",
        "coordinates": [
          98.49510395966576,
          -3.1993014218900946
        ]
      }
    },
    {
      "type": "Feature",
      "properties": {
        "norad_id": 39199,
        "name": "IRNSS-1A",
        "group": "gnss",
        "lat": 29.327244061235092,
        "lon": 118.80963905308438,
        "alt_km": 35874.790899518106,
        "timestamp": "2025-12-20T22:39:10.872358+00:00",
        "meta_object_name": "IRNSS-1A",
        "meta_object_id": "2013-034A",
        "meta_epoch": "2025-12-18T18:41:43.776960",
        "meta_mean_motion": 1.00272479,
        "meta_eccentricity": 0.0024472,
        "meta_inclination": 35.3183,
        "meta_ra_of_asc_node": 66.4661,
        "meta_arg_of_pericenter": 211.0525,
        "meta_mean_anomaly": 145.3931,
        "meta_ephemeris_type": 0,
        "meta_classification_type": "U",
        "meta_norad_cat_id": 39199,
        "meta_element_set_no": 999,
        "meta_rev_at_epoch": 4555,
        "meta_bstar": 0,
        "meta_mean_motion_dot": 6.5e-07,
        "meta_mean_motion_ddot": 0,
        "tle_line1": "1 39199U 13034A   25352.77897890  .00000065  00000+0  00000+0 0  9993",
        "tle_line2": "2 39199  35.3183  66.4661 0024472 211.0525 145.3931  1.00272479 45557"
      },
      "geometry": {
        "type": "Point",
        "coordinates": [
          118.80963905308438,
          29.327244061235092
        ]
      }
    },
    {
      "type": "Feature",
      "properties": {
        "norad_id": 39533,
        "name": "GPS BIIF-5  (PRN 30)",
        "group": "gnss",
        "lat": -3.8850193194850946,
        "lon": -20.552150624748492,
        "alt_km": 20023.866315461877,
        "timestamp": "2025-12-20T22:39:10.872368+00:00",
        "meta_object_name": "GPS BIIF-5  (PRN 30)",
        "meta_object_id": "2014-008A",
        "meta_epoch": "2025-12-20T04:30:10.868256",
        "meta_mean_motion": 2.00559606,
        "meta_eccentricity": 0.00799985,
        "meta_inclination": 53.6333,
        "meta_ra_of_asc_node": 156.6204,
        "meta_arg_of_pericenter": 226.3975,
        "meta_mean_anomaly": 132.9264,
        "meta_ephemeris_type": 0,
        "meta_classification_type": "U",
        "meta_norad_cat_id": 39533,
        "meta_element_set_no": 999,
        "meta_rev_at_epoch": 8609,
        "meta_bstar": 0,
        "meta_mean_motion_dot": 6.4e-07,
        "meta_mean_motion_ddot": 0,
        "tle_line1": "1 39533U 14008A   25354.18762579  .00000064  00000+0  00000+0 0  9998",
        "tle_line2": "2 39533  53.6333 156.6204 0079998 226.3975 132.9264  2.00559606 86091"
      },
      "geometry": {
        "type": "Point",
        "coordinates": [
          -20.552150624748492,
          -3.8850193194850946
        ]
      }
    }
  ]
}